{"fetched_at":"2026-07-12T05:52:33.815Z","source":"https://celestrak.org/NORAD/elements/gp.php?GROUP=oneweb&FORMAT=JSON","constellation":"oneweb","records":[{"OBJECT_NAME":"ONEWEB-0403","OBJECT_ID":"2021-132Q","EPOCH":"2026-07-11T20:29:53.431296","CLASSIFICATION_TYPE":"U","MEAN_MOTION":13.18686702,"ECCENTRICITY":0.000179,"INCLINATION":87.9192,"RA_OF_ASC_NODE":330.5504,"ARG_OF_PERICENTER":92.5515,"MEAN_ANOMALY":267.5822,"EPHEMERIS_TYPE":0,"NORAD_CAT_ID":50483,"ELEMENT_SET_NO":999,"REV_AT_EPOCH":22484,"BSTAR":0.000052331,"MEAN_MOTION_DOT":3.4e-7,"MEAN_MOTION_DDOT":0},{"OBJECT_NAME":"ONEWEB-0404","OBJECT_ID":"2021-132R","EPOCH":"2026-07-11T12:25:18.899040","CLASSIFICATION_TYPE":"U","MEAN_MOTION":13.1141421,"ECCENTRICITY":0.0001896,"INCLINATION":87.8884,"RA_OF_ASC_NODE":16.2225,"ARG_OF_PERICENTER":80.3168,"MEAN_ANOMALY":279.8174,"EPHEMERIS_TYPE":0,"NORAD_CAT_ID":50484,"ELEMENT_SET_NO":999,"REV_AT_EPOCH":21888,"BSTAR":0.0003187971,"MEAN_MOTION_DOT":0.00000126,"MEAN_MOTION_DDOT":0},{"OBJECT_NAME":"ONEWEB-0405","OBJECT_ID":"2021-132S","EPOCH":"2026-07-11T20:49:18.239808","CLASSIFICATION_TYPE":"U","MEAN_MOTION":13.18684568,"ECCENTRICITY":0.0002369,"INCLINATION":87.9197,"RA_OF_ASC_NODE":330.5327,"ARG_OF_PERICENTER":97.2358,"MEAN_ANOMALY":262.9044,"EPHEMERIS_TYPE":0,"NORAD_CAT_ID":50485,"ELEMENT_SET_NO":999,"REV_AT_EPOCH":22524,"BSTAR":0.0000043789,"MEAN_MOTION_DOT":1.5e-7,"MEAN_MOTION_DDOT":0},{"OBJECT_NAME":"ONEWEB-0406","OBJECT_ID":"2021-132T","EPOCH":"2026-07-11T20:37:10.045920","CLASSIFICATION_TYPE":"U","MEAN_MOTION":13.18687335,"ECCENTRICITY":0.0001878,"INCLINATION":87.919,"RA_OF_ASC_NODE":330.5494,"ARG_OF_PERICENTER":80.6505,"MEAN_ANOMALY":279.4839,"EPHEMERIS_TYPE":0,"NORAD_CAT_ID":50486,"ELEMENT_SET_NO":999,"REV_AT_EPOCH":22487,"BSTAR":0.00024228,"MEAN_MOTION_DOT":0.00000108,"MEAN_MOTION_DDOT":0},{"OBJECT_NAME":"ONEWEB-0407","OBJECT_ID":"2021-132U","EPOCH":"2026-07-11T20:27:26.565984","CLASSIFICATION_TYPE":"U","MEAN_MOTION":13.1868821,"ECCENTRICITY":0.0001945,"INCLINATION":87.9196,"RA_OF_ASC_NODE":330.544,"ARG_OF_PERICENTER":103.3398,"MEAN_ANOMALY":256.7951,"EPHEMERIS_TYPE":0,"NORAD_CAT_ID":50487,"ELEMENT_SET_NO":999,"REV_AT_EPOCH":22481,"BSTAR":-6.5689e-7,"MEAN_MOTION_DOT":1.3e-7,"MEAN_MOTION_DDOT":0},{"OBJECT_NAME":"ONEWEB-0409","OBJECT_ID":"2021-132V","EPOCH":"2026-07-11T12:22:52.915872","CLASSIFICATION_TYPE":"U","MEAN_MOTION":13.11414239,"ECCENTRICITY":0.00019331,"INCLINATION":87.8868,"RA_OF_ASC_NODE":16.2115,"ARG_OF_PERICENTER":83.9443,"MEAN_ANOMALY":276.1905,"EPHEMERIS_TYPE":0,"NORAD_CAT_ID":50488,"ELEMENT_SET_NO":999,"REV_AT_EPOCH":21877,"BSTAR":0.00035997968,"MEAN_MOTION_DOT":0.0000014,"MEAN_MOTION_DDOT":0},{"OBJECT_NAME":"ONEWEB-0412","OBJECT_ID":"2021-132W","EPOCH":"2026-07-11T20:10:27.641280","CLASSIFICATION_TYPE":"U","MEAN_MOTION":13.18686583,"ECCENTRICITY":0.0001617,"INCLINATION":87.9188,"RA_OF_ASC_NODE":330.5541,"ARG_OF_PERICENTER":103.6691,"MEAN_ANOMALY":256.4621,"EPHEMERIS_TYPE":0,"NORAD_CAT_ID":50489,"ELEMENT_SET_NO":999,"REV_AT_EPOCH":22490,"BSTAR":-0.000098941,"MEAN_MOTION_DOT":-2.6e-7,"MEAN_MOTION_DDOT":0},{"OBJECT_NAME":"ONEWEB-0413","OBJECT_ID":"2021-132X","EPOCH":"2026-07-11T20:17:44.642976","CLASSIFICATION_TYPE":"U","MEAN_MOTION":13.18688049,"ECCENTRICITY":0.0001745,"INCLINATION":87.9184,"RA_OF_ASC_NODE":330.5495,"ARG_OF_PERICENTER":108.5875,"MEAN_ANOMALY":251.5447,"EPHEMERIS_TYPE":0,"NORAD_CAT_ID":50490,"ELEMENT_SET_NO":999,"REV_AT_EPOCH":22484,"BSTAR":-0.00015101,"MEAN_MOTION_DOT":-4.7e-7,"MEAN_MOTION_DDOT":0},{"OBJECT_NAME":"ONEWEB-0414","OBJECT_ID":"2021-132Y","EPOCH":"2026-07-11T19:55:53.562720","CLASSIFICATION_TYPE":"U","MEAN_MOTION":13.18686338,"ECCENTRICITY":0.0001731,"INCLINATION":87.9193,"RA_OF_ASC_NODE":330.5371,"ARG_OF_PERICENTER":97.1295,"MEAN_ANOMALY":263.0034,"EPHEMERIS_TYPE":0,"NORAD_CAT_ID":50491,"ELEMENT_SET_NO":999,"REV_AT_EPOCH":22487,"BSTAR":-0.00013877,"MEAN_MOTION_DOT":-4.2e-7,"MEAN_MOTION_DDOT":0},{"OBJECT_NAME":"ONEWEB-0417","OBJECT_ID":"2021-132Z","EPOCH":"2026-07-11T20:08:01.689216","CLASSIFICATION_TYPE":"U","MEAN_MOTION":13.18686747,"ECCENTRICITY":0.0001888,"INCLINATION":87.9188,"RA_OF_ASC_NODE":330.5528,"ARG_OF_PERICENTER":91.636,"MEAN_ANOMALY":268.4988,"EPHEMERIS_TYPE":0,"NORAD_CAT_ID":50492,"ELEMENT_SET_NO":999,"REV_AT_EPOCH":22485,"BSTAR":-0.000095286,"MEAN_MOTION_DOT":-2.5e-7,"MEAN_MOTION_DDOT":0},{"OBJECT_NAME":"ONEWEB-0418","OBJECT_ID":"2021-132AA","EPOCH":"2026-07-11T20:22:23.834208","CLASSIFICATION_TYPE":"U","MEAN_MOTION":13.18686162,"ECCENTRICITY":0.0001908,"INCLINATION":87.9186,"RA_OF_ASC_NODE":330.5523,"ARG_OF_PERICENTER":89.268,"MEAN_ANOMALY":270.867,"EPHEMERIS_TYPE":0,"NORAD_CAT_ID":50493,"ELEMENT_SET_NO":999,"REV_AT_EPOCH":22491,"BSTAR":-0.000089254,"MEAN_MOTION_DOT":-2.2e-7,"MEAN_MOTION_DDOT":0},{"OBJECT_NAME":"ONEWEB-0419","OBJECT_ID":"2021-132AB","EPOCH":"2026-07-11T20:49:43.327776","CLASSIFICATION_TYPE":"U","MEAN_MOTION":13.18666231,"ECCENTRICITY":0.0002093,"INCLINATION":87.9192,"RA_OF_ASC_NODE":330.5488,"ARG_OF_PERICENTER":93.1803,"MEAN_ANOMALY":266.9569,"EPHEMERIS_TYPE":0,"NORAD_CAT_ID":50494,"ELEMENT_SET_NO":999,"REV_AT_EPOCH":22483,"BSTAR":0.0000089624,"MEAN_MOTION_DOT":1.6e-7,"MEAN_MOTION_DDOT":0},{"OBJECT_NAME":"ONEWEB-0420","OBJECT_ID":"2021-132AC","EPOCH":"2026-07-11T18:09:02.278368","CLASSIFICATION_TYPE":"U","MEAN_MOTION":13.18686918,"ECCENTRICITY":0.0001967,"INCLINATION":87.9184,"RA_OF_ASC_NODE":330.5716,"ARG_OF_PERICENTER":103.3986,"MEAN_ANOMALY":256.7366,"EPHEMERIS_TYPE":0,"NORAD_CAT_ID":50495,"ELEMENT_SET_NO":999,"REV_AT_EPOCH":22481,"BSTAR":-0.00012818,"MEAN_MOTION_DOT":-3.8e-7,"MEAN_MOTION_DDOT":0},{"OBJECT_NAME":"ONEWEB-0421","OBJECT_ID":"2021-132AD","EPOCH":"2026-07-11T19:48:37.285920","CLASSIFICATION_TYPE":"U","MEAN_MOTION":13.1868606,"ECCENTRICITY":0.0001375,"INCLINATION":87.9182,"RA_OF_ASC_NODE":330.5558,"ARG_OF_PERICENTER":99.096,"MEAN_ANOMALY":261.0328,"EPHEMERIS_TYPE":0,"NORAD_CAT_ID":50496,"ELEMENT_SET_NO":999,"REV_AT_EPOCH":22486,"BSTAR":0.00021954,"MEAN_MOTION_DOT":9.9e-7,"MEAN_MOTION_DDOT":0},{"OBJECT_NAME":"ONEWEB-0424","OBJECT_ID":"2021-132AE","EPOCH":"2026-07-11T20:42:01.817856","CLASSIFICATION_TYPE":"U","MEAN_MOTION":13.18686848,"ECCENTRICITY":0.0002179,"INCLINATION":87.9192,"RA_OF_ASC_NODE":330.548,"ARG_OF_PERICENTER":94.1346,"MEAN_ANOMALY":266.0035,"EPHEMERIS_TYPE":0,"NORAD_CAT_ID":50497,"ELEMENT_SET_NO":999,"REV_AT_EPOCH":22489,"BSTAR":0.000018608,"MEAN_MOTION_DOT":2e-7,"MEAN_MOTION_DDOT":0},{"OBJECT_NAME":"ONEWEB-0426","OBJECT_ID":"2021-132AF","EPOCH":"2026-07-11T19:42:32.593248","CLASSIFICATION_TYPE":"U","MEAN_MOTION":13.18685622,"ECCENTRICITY":0.000147,"INCLINATION":87.9193,"RA_OF_ASC_NODE":330.5475,"ARG_OF_PERICENTER":77.7416,"MEAN_ANOMALY":282.388,"EPHEMERIS_TYPE":0,"NORAD_CAT_ID":50498,"ELEMENT_SET_NO":999,"REV_AT_EPOCH":22483,"BSTAR":-0.0000013176,"MEAN_MOTION_DOT":1.2e-7,"MEAN_MOTION_DDOT":0}]}
